COSMOS 2433 (720)       
1 32275U 07052A   22071.72255894 -.00000078  00000+0  00000+0 0  9991
2 32275  66.0841   7.8788 0003863 280.8904 291.1369  2.13104030111902
COSMOS 2432 (719)       
1 32276U 07052B   22071.70326845 -.00000078  00000+0  00000+0 0  9995
2 32276  66.0976   7.9790 0012026 326.8782 178.9167  2.13103423111905
COSMOS 2434 (721)       
1 32393U 07065A   22071.65174935  .00000073  00000+0  00000+0 0  9998
2 32393  64.4029 244.7308 0005106  76.7032 330.2141  2.13103070110612
COSMOS 2436 (723)       
1 32395U 07065C   22071.71842203  .00000072  00000+0  00000+0 0  9996
2 32395  64.4117 244.7842 0016525   8.3253 225.6729  2.13102928110540
COSMOS 2456 (730)       
1 36111U 09070A   22071.72695874  .00000021  00000+0  00000+0 0  9999
2 36111  64.3277 124.3758 0004709 302.1141 329.4156  2.13099060 95278
COSMOS 2457 (733)       
1 36112U 09070B   22071.58984927  .00000019  00000+0  00000+0 0  9991
2 36112  64.3108 124.2586 0004964 180.7721 112.0989  2.13101267 95270
COSMOS 2461 (735)       
1 36401U 10007B   22071.40657420 -.00000079  00000+0  00000+0 0  9997
2 36401  65.9709   6.7409 0021722   2.4600 184.6704  2.13103699 93628
COSMOS 2460 (732)       
1 36402U 10007C   22071.59127139 -.00000079  00000+0  00000+0 0  9997
2 36402  65.9586   6.6875 0002154 331.7602 304.5679  2.13106359 93626
COSMOS 2464 (736)       
1 37139U 10041C   22071.69303056  .00000071  00000+0  00000+0 0  9999
2 37139  64.0020 243.8522 0030099  14.4737 283.0670  2.13100854 89681
COSMOS 2476 (744)       
1 37867U 11064A   22071.44306036  .00000016  00000+0  00000+0 0  9996
2 37867  64.6178 125.7040 0022581 238.8644  79.5468  2.13101915 80614
COSMOS 2477 (745)       
1 37868U 11064B   22071.65285201  .00000019  00000+0  00000+0 0  9993
2 37868  64.6257 125.7609 0019737 239.3241  58.1983  2.13101578 80577
COSMOS 2475 (743)       
1 37869U 11064C   22071.71842203  .00000020  00000+0  00000+0 0  9994
2 37869  64.6329 125.7658 0023856 256.4908  49.2586  2.13101756 80588
COSMOS 2485 (747)       
1 39155U 13019A   22071.47304066  .00000016  00000+0  00000+0 0  9994
2 39155  64.7822 126.1103 0022703 233.7972 152.0210  2.13101773 69095
COSMOS 2492 (754)       
1 39620U 14012A   22071.11838796 -.00000080  00000+0  00000+0 0  9990
2 39620  65.8452   6.3983 0015119 324.3278 183.9807  2.13103101 62036
COSMOS 2500 (755)       
1 40001U 14032A   22071.45379418 -.00000080  00000+0  00000+0 0  9995
2 40001  65.7848   6.2554 0005466 222.6035  41.9366  2.13102393 60254
COSMOS 2501 (702K)      
1 40315U 14075A   22071.75765728  .00000070  00000+0  00000+0 0  9994
2 40315  63.7103 244.5558 0016269 205.1573 100.0183  2.13101341 56667
COSMOS 2514 (751)       
1 41330U 16008A   22071.80836448 -.00000079  00000+0  00000+0 0  9994
2 41330  65.5854   5.9587 0009448 225.6516 134.5586  2.13102764 47438
COSMOS 2516 (753)       
1 41554U 16032A   22071.70407844  .00000071  00000+0  00000+0 0  9993
2 41554  63.9365 244.8066 0012022 211.0419 329.9790  2.13106082 45032
COSMOS 2522 (752)       
1 42939U 17055A   22070.75821183  .00000076  00000+0  00000+0 0  9992
2 42939  64.1702 245.2059 0004916 242.6873 151.0764  2.13101920 34772
COSMOS 2527 (756)       
1 43508U 18053A   22071.69451845  .00000020  00000+0  00000+0 0  9991
2 43508  64.9460 126.0832 0008950 234.4994 189.6715  2.13102523 29085
COSMOS 2529 (757)       
1 43687U 18086A   22071.68070186  .00000073  00000+0  00000+0 0  9997
2 43687  64.3846 245.4645 0007186 275.9210  61.0579  2.13102055 26093
COSMOS 2534 (758)       
1 44299U 19030A   22071.77111487  .00000073  00000+0  00000+0 0  9997
2 44299  64.4570 245.3365 0010540 298.3657 242.6049  2.13101949 21745
COSMOS 2544 (759)       
1 44850U 19088A   22071.58105676  .00000018  00000+0  00000+0 0  9994
2 44850  64.9305 125.9408 0013375 260.1114 120.5572  2.13102337 17511
COSMOS 2545 (760)       
1 45358U 20018A   22071.45169113 -.00000081  00000+0  00000+0 0  9996
2 45358  64.9220   6.6587 0009685 261.2023 229.8391  2.13102624 15467
COSMOS 2547 (705K)      
1 46805U 20075A   22071.70372956  .00000073  00000+0  00000+0 0  9996
2 46805  64.6793 244.7350 0005104 246.8415 289.7840  2.13103014 10717
